     2.100          NAVIGATION                              RINEX VERSION / TYPE
fic2rin                                 04/07/2011 00:22:55 PGM / RUN BY / DATE
                                                            END OF HEADER
 1 11  4  6 20  0  0.0 -.220783054829D-03 -.261479726760D-11  .000000000000D+00
     .250000000000D+02 -.131250000000D+01  .422303304913D-08 -.128551354259D+01
    -.745058059692D-07  .463587581180D-02  .945478677750D-05  .515358708191D+04
     .331200000000D+06  .143423676491D-06 -.208649966720D+01  .633299350739D-07
     .968285864787D+00  .201125000000D+03  .862771924017D+00 -.778532429001D-08
     .416088760338D-09  .100000000000D+01  .163000000000D+04  .000000000000D+00
     .240000000000D+01  .630000000000D+02 -.195577740669D-07  .250000000000D+02
     .324006000000D+06  .400000000000D+01
 2 11  4  6 20  0  0.0  .329304486513D-03  .227373675443D-11  .000000000000D+00
     .570000000000D+02 -.181250000000D+01  .469126683867D-08 -.310672472239D+01
     .540167093277D-07  .101669906871D-01  .104252249002D-04  .515374262047D+04
     .331200000000D+06 -.149011611938D-06 -.741667428283D-02 -.931322574615D-08
     .939594114781D+00  .166062500000D+03 -.303493196791D+01 -.789068582159D-08
    -.327156484524D-09  .100000000000D+01  .163000000000D+04  .000000000000D+00
     .240000000000D+01  .000000000000D+00 -.172294676304D-07  .570000000000D+02
     .324006000000D+06  .400000000000D+01
 3 11  4  6 20  0  0.0  .698488205671D-03  .511590769747D-11  .000000000000D+00
     .170000000000D+02 -.643750000000D+01  .548379985085D-08 -.307074694400D+01
    -.353902578354D-06  .140635867137D-01  .470876693726D-05  .515364213371D+04
     .331200000000D+06  .106170773506D-06 -.116454824351D+01 -.126659870148D-06
     .928220678654D+00  .270781250000D+03  .108016440036D+01 -.827320175492D-08
     .121433629627D-09  .100000000000D+01  .163000000000D+04  .000000000000D+00
     .240000000000D+01  .000000000000D+00 -.419095158577D-08  .170000000000D+02
     .324006000000D+06  .400000000000D+01
 4 11  4  6 20  0  0.0  .811447389424D-04  .103455022327D-10  .000000000000D+00
     .680000000000D+02 -.278125000000D+01  .487591738724D-08 -.218857738018D-01
     .186264514923D-07  .957379187457D-02  .102203339338D-04  .515362973976D+04
     .331200000000D+06  .558793544769D-08  .100215096418D-01  .165775418282D-06
     .938693399045D+00  .171875000000D+03  .717549910045D+00 -.824605776712D-08
    -.331442377334D-09  .100000000000D+01  .163000000000D+04  .000000000000D+00
     .240000000000D+01  .000000000000D+00 -.605359673500D-08  .680000000000D+02
     .324006000000D+06  .400000000000D+01
 5 11  4  6 20  0  0.0 -.140663236380D-03 -.579802872380D-11  .000000000000D+00
     .890000000000D+02  .108687500000D+03  .460090593191D-08 -.131656880060D+01
     .553950667381D-05  .223874580115D-02  .720843672752D-05  .515365035629D+04
     .331200000000D+06  .111758708954D-07  .105378035096D+01 -.186264514923D-07
     .954765201392D+00  .234062500000D+03  .273406818160D+00 -.813391023858D-08
     .261082303697D-09  .100000000000D+01  .163000000000D+04  .000000000000D+00
     .240000000000D+01  .000000000000D+00 -.977888703346D-08  .890000000000D+02
     .324006000000D+06  .400000000000D+01
 6 11  4  6 20  0  0.0 -.278741121292D-03 -.113914211397D-09  .000000000000D+00
     .780000000000D+02 -.103750000000D+02  .540379651839D-08 -.100287594981D+01
    -.530853867531D-06  .665955001023D-02  .512041151524D-05  .515363818741D+04
     .331200000000D+06 -.141561031342D-06 -.109128852745D+01  .167638063431D-07
     .935411415480D+00  .270343750000D+03 -.830144507445D+00 -.849749681199D-08
     .108933108930D-09  .100000000000D+01  .163000000000D+04  .000000000000D+00
     .240000000000D+01  .000000000000D+00 -.465661287308D-08  .780000000000D+02
     .324006000000D+06  .400000000000D+01
 7 11  4  6 20  0  0.0  .747060403228D-05  .102318153949D-11  .000000000000D+00
     .950000000000D+02 -.974375000000D+02  .412517182996D-08  .154343812756D+01
    -.489689409733D-05  .425965525210D-02  .817142426968D-05  .515367127991D+04
     .331200000000D+06  .391155481339D-07 -.312435495088D+01  .316649675369D-07
     .974521867627D+00  .229937500000D+03 -.311732528280D+01 -.787568519676D-08
    -.245724521127D-09  .100000000000D+01  .163000000000D+04  .000000000000D+00
     .240000000000D+01  .000000000000D+00 -.107102096081D-07  .950000000000D+02
     .324006000000D+06  .400000000000D+01
 8 11  4  6 20  0  0.0  .765640288591D-05  .000000000000D+00  .000000000000D+00
     .270000000000D+02 -.882500000000D+02  .356729144915D-08  .101284991900D+01
    -.445172190666D-05  .114825303899D-01  .884942710400D-05  .515360730743D+04
     .331200000000D+06  .558793544769D-07 -.304994896097D+01  .143423676491D-06
     .996198959091D+00  .224968750000D+03 -.308122996918D+01 -.761567436626D-08
    -.280725979078D-09  .100000000000D+01  .163000000000D+04  .000000000000D+00
     .240000000000D+01  .000000000000D+00 -.465661287308D-08  .270000000000D+02
     .324006000000D+06  .400000000000D+01
 9 11  4  6 20  0  0.0  .722105614841D-04  .227373675443D-11  .000000000000D+00
     .880000000000D+02 -.928437500000D+02  .400730977768D-08  .863059789722D+00
    -.501051545143D-05  .171628764365D-01  .911764800549D-05  .515367638588D+04
     .331200000000D+06 -.273808836937D-06  .313002546274D+01 -.912696123123D-07
     .983459327177D+00  .221625000000D+03  .155878483749D+01 -.804854954011D-08
    -.262868092368D-09  .100000000000D+01  .163000000000D+04  .000000000000D+00
     .340000000000D+01  .000000000000D+00 -.558793544769D-08  .880000000000D+02
     .324006000000D+06  .400000000000D+01
11 11  4  6 20  0  0.0 -.140557065606D-03 -.306954461848D-11  .000000000000D+00
     .830000000000D+02 -.342812500000D+02  .626633244647D-08  .167600315278D+01
    -.181235373020D-05  .116837369278D-01  .835023820400D-05  .515350218964D+04
     .331200000000D+06 -.271946191788D-06 -.241955987101D+00 -.819563865662D-07
     .888347006053D+00  .181125000000D+03  .918898402893D+00 -.890001357843D-08
    -.438589697593D-09  .100000000000D+01  .163000000000D+04  .000000000000D+00
     .240000000000D+01  .000000000000D+00 -.116415321827D-07  .830000000000D+02
     .324006000000D+06  .400000000000D+01
12 11  4  6 20  0  0.0 -.136848539114D-04  .284217094304D-11  .000000000000D+00
     .500000000000D+02  .133750000000D+02  .414302971667D-08  .154731683102D+01
     .661239027977D-06  .372935109772D-02  .929646193981D-05  .515377419472D+04
     .331200000000D+06 -.298023223877D-07 -.207007608280D+01  .931322574615D-07
     .974411073527D+00  .205625000000D+03 -.239536243063D+00 -.774746557018D-08
     .410017078857D-09  .100000000000D+01  .163000000000D+04  .000000000000D+00
     .240000000000D+01  .000000000000D+00 -.121071934700D-07  .500000000000D+02
     .324006000000D+06  .400000000000D+01
13 11  4  6 20  0  0.0  .276145059615D-03 -.147792889038D-11  .000000000000D+00
     .480000000000D+02 -.124062500000D+02  .422767609968D-08 -.223592206861D+01
    -.530853867531D-06  .468160025775D-02  .202469527721D-05  .515361633873D+04
     .331200000000D+06  .428408384323D-07  .218333117162D+01  .949949026108D-07
     .989942390548D+00  .357343750000D+03  .180620002524D+01 -.805069248651D-08
    -.675028117631D-10  .100000000000D+01  .163000000000D+04  .000000000000D+00
     .240000000000D+01  .000000000000D+00 -.111758708954D-07  .480000000000D+02
     .324006000000D+06  .400000000000D+01
14 11  4  6 20  0  0.0  .142296776175D-03  .238742359215D-11  .000000000000D+00
     .560000000000D+02 -.177500000000D+02  .437446792843D-08 -.224555980072D+01
    -.787898898125D-06  .562843785156D-02  .178813934326D-05  .515364735794D+04
     .331200000000D+06  .614672899246D-07  .215945524552D+01 -.558793544769D-08
     .982995209102D+00  .356843750000D+03 -.209575253628D+01 -.816891169653D-08
    -.621454457501D-10  .100000000000D+01  .163000000000D+04  .000000000000D+00
     .240000000000D+01  .000000000000D+00 -.884756445885D-08  .560000000000D+02
     .324006000000D+06  .400000000000D+01
15 11  4  6 20  0  0.0 -.137298367918D-03  .295585778076D-11  .000000000000D+00
     .770000000000D+02 -.111250000000D+02  .514414284563D-08 -.264953596929D+01
    -.543892383575D-06  .339378963690D-02  .154040753841D-05  .515359331894D+04
     .331200000000D+06 -.577419996262D-07  .208525962908D+01 -.428408384323D-07
     .950191847373D+00  .346000000000D+03 -.615055598963D-01 -.853999858236D-08
    -.703600736366D-10  .100000000000D+01  .163000000000D+04  .000000000000D+00
     .240000000000D+01  .000000000000D+00 -.977888703346D-08  .770000000000D+02
     .324006000000D+06  .400000000000D+01
16 11  4  6 20  0  0.0 -.163228716701D-03 -.272848410532D-11  .000000000000D+00
     .103000000000D+03 -.221875000000D+01  .405731186047D-08 -.813510012677D+00
    -.141561031342D-06  .634683074895D-02  .927597284317D-05  .515377867699D+04
     .331200000000D+06  .577419996262D-07 -.205229431062D+01 -.128522515297D-06
     .975437783082D+00  .209468750000D+03 -.146406578239D+00 -.773282210308D-08
     .465733685392D-09  .100000000000D+01  .163000000000D+04  .000000000000D+00
     .240000000000D+01  .000000000000D+00 -.977888703346D-08  .103000000000D+03
     .324006000000D+06  .400000000000D+01
17 11  4  6 20  0  0.0  .184296630323D-03  .113686837722D-12  .000000000000D+00
     .680000000000D+02 -.166562500000D+02  .479912847439D-08 -.189421120888D+01
    -.847503542900D-06  .624921754934D-02  .502169132233D-05  .515373136139D+04
     .331200000000D+06  .596046447754D-07 -.100919523950D+01 -.931322574615D-07
     .960811020493D+00  .283718750000D+03 -.241030018327D+01 -.809605151876D-08
     .357157734196D-11  .100000000000D+01  .163000000000D+04  .000000000000D+00
     .240000000000D+01  .000000000000D+00 -.102445483208D-07  .680000000000D+02
     .324006000000D+06  .400000000000D+01
